CTC2_L_00253001-01
1 66588U 22149BL  26070.40844907  .00000000  00000+0  00000-0 0  9991
2 66588  60.0000   0.0000 0000000   0.0000   0.0000 14.06899812    10
CTC2_L_00253001-02
1 66589U 24110KZ  26070.40844907  .00000000  00000+0  00000-0 0  9992
2 66589  60.0000   0.0000 0000000   0.0000  90.0000 14.06899812    10
CTC2_L_00253001-03
1 66590U 23327VK  26070.40844907  .00000000  00000+0  00000-0 0  9993
2 66590  60.0000   0.0000 0000000   0.0000 180.0000 14.06899812    12
CTC2_L_00253001-04
1 66591U 22256PF  26070.40844907  .00000000  00000+0  00000-0 0  9994
2 66591  60.0000   0.0000 0000000   0.0000 270.0000 14.06899812    13
CTC2_L_00253002-01
1 66592U 26966JH  26070.40844907  .00000000  00000+0  00000-0 0  9997
2 66592  60.0000  12.0000 0000000   0.0000  12.0000 14.06899812    11
CTC2_L_00253002-02
1 66593U 22550BM  26070.40844907  .00000000  00000+0  00000-0 0  9993
2 66593  60.0000  12.0000 0000000   0.0000 102.0000 14.06899812    12
CTC2_L_00253002-03
1 66594U 22630UQ  26070.40844907  .00000000  00000+0  00000-0 0  9993
2 66594  60.0000  12.0000 0000000   0.0000 192.0000 14.06899812    12
CTC2_L_00253002-04
1 66595U 24816XO  26070.40844907  .00000000  00000+0  00000-0 0  9992
2 66595  60.0000  12.0000 0000000   0.0000 282.0000 14.06899812    13
CTC2_L_00253003-01
1 66596U 25096BL  26070.40844907  .00000000  00000+0  00000-0 0  9994
2 66596  60.0000  24.0000 0000000   0.0000  24.0000 14.06899812    11
CTC2_L_00253003-02
1 66597U 22845NH  26070.40844907  .00000000  00000+0  00000-0 0  9994
2 66597  60.0000  24.0000 0000000   0.0000 114.0000 14.06899812    12
CTC2_L_00253003-03
1 66598U 23136OR  26070.40844907  .00000000  00000+0  00000-0 0  9999
2 66598  60.0000  24.0000 0000000   0.0000 204.0000 14.06899812    13
CTC2_L_00253003-04
1 66599U 24121AB  26070.40844907  .00000000  00000+0  00000-0 0  9995
2 66599  60.0000  24.0000 0000000   0.0000 294.0000 14.06899812    13
CTC2_L_00253004-01
1 66600U 23837ZT  26070.40844907  .00000000  00000+0  00000-0 0  9991
2 66600  60.0000  36.0000 0000000   0.0000  36.0000 14.06899812    13
CTC2_L_00253004-02
1 66601U 24449DK  26070.40844907  .00000000  00000+0  00000-0 0  9992
2 66601  60.0000  36.0000 0000000   0.0000 126.0000 14.06899812    14
CTC2_L_00253004-03
1 66602U 23201GR  26070.40844907  .00000000  00000+0  00000-0 0  9998
2 66602  60.0000  36.0000 0000000   0.0000 216.0000 14.06899812    15
CTC2_L_00253004-04
1 66603U 25204UR  26070.40844907  .00000000  00000+0  00000-0 0  9994
2 66603  60.0000  36.0000 0000000   0.0000 306.0000 14.06899812    16
CTC2_L_00253005-01
1 66604U 25033YZ  26070.40844907  .00000000  00000+0  00000-0 0  9995
2 66604  60.0000  48.0000 0000000   0.0000  48.0000 14.06899812    13
CTC2_L_00253005-02
1 66605U 23456PX  26070.40844907  .00000000  00000+0  00000-0 0  9993
2 66605  60.0000  48.0000 0000000   0.0000 138.0000 14.06899812    14
CTC2_L_00253005-03
1 66606U 23105RP  26070.40844907  .00000000  00000+0  00000-0 0  9995
2 66606  60.0000  48.0000 0000000   0.0000 228.0000 14.06899812    15
CTC2_L_00253005-04
1 66607U 22477TN  26070.40844907  .00000000  00000+0  00000-0 0  9997
2 66607  60.0000  48.0000 0000000   0.0000 318.0000 14.06899812    16
CTC2_L_00253006-01
1 66608U 22014LM  26070.40844907  .00000000  00000+0  00000-0 0  9995
2 66608  60.0000  60.0000 0000000   0.0000  60.0000 14.06899812    15
CTC2_L_00253006-02
1 66609U 26924UX  26070.40844907  .00000000  00000+0  00000-0 0  9990
2 66609  60.0000  60.0000 0000000   0.0000 150.0000 14.06899812    16
CTC2_L_00253006-03
1 66610U 25304YU  26070.40844907  .00000000  00000+0  00000-0 0  9993
2 66610  60.0000  60.0000 0000000   0.0000 240.0000 14.06899812    18
CTC2_L_00253006-04
1 66611U 22683UO  26070.40844907  .00000000  00000+0  00000-0 0  9991
2 66611  60.0000  60.0000 0000000   0.0000 330.0000 14.06899812    19
CTC2_L_00253007-01
1 66612U 24192NC  26070.40844907  .00000000  00000+0  00000-0 0  9999
2 66612  60.0000  72.0000 0000000   0.0000  72.0000 14.06899812    16
CTC2_L_00253007-02
1 66613U 25079JJ  26070.40844907  .00000000  00000+0  00000-0 0  9995
2 66613  60.0000  72.0000 0000000   0.0000 162.0000 14.06899812    17
CTC2_L_00253007-03
1 66614U 26353TA  26070.40844907  .00000000  00000+0  00000-0 0  9992
2 66614  60.0000  72.0000 0000000   0.0000 252.0000 14.06899812    18
CTC2_L_00253007-04
1 66615U 24233GC  26070.40844907  .00000000  00000+0  00000-0 0  9998
2 66615  60.0000  72.0000 0000000   0.0000 342.0000 14.06899812    19
CTC2_L_00253008-01
1 66616U 24660DT  26070.40844907  .00000000  00000+0  00000-0 0  9993
2 66616  60.0000  84.0000 0000000   0.0000  84.0000 14.06899812    16
CTC2_L_00253008-02
1 66617U 22372RI  26070.40844907  .00000000  00000+0  00000-0 0  9992
2 66617  60.0000  84.0000 0000000   0.0000 174.0000 14.06899812    17
CTC2_L_00253008-03
1 66618U 23540SU  26070.40844907  .00000000  00000+0  00000-0 0  9991
2 66618  60.0000  84.0000 0000000   0.0000 264.0000 14.06899812    18
CTC2_L_00253008-04
1 66619U 24564MY  26070.40844907  .00000000  00000+0  00000-0 0  9999
2 66619  60.0000  84.0000 0000000   0.0000 354.0000 14.06899812    19
CTC2_L_00253009-01
1 66620U 22772DF  26070.40844907  .00000000  00000+0  00000-0 0  9990
2 66620  60.0000  96.0000 0000000   0.0000  96.0000 14.06899812    17
CTC2_L_00253009-02
1 66621U 25449CU  26070.40844907  .00000000  00000+0  00000-0 0  9995
2 66621  60.0000  96.0000 0000000   0.0000 186.0000 14.06899812    18
CTC2_L_00253009-03
1 66622U 22915DS  26070.40844907  .00000000  00000+0  00000-0 0  9991
2 66622  60.0000  96.0000 0000000   0.0000 276.0000 14.06899812    19
CTC2_L_00253009-04
1 66623U 25274XD  26070.40844907  .00000000  00000+0  00000-0 0  9993
2 66623  60.0000  96.0000 0000000   0.0000   6.0000 14.06899812    11
CTC2_L_00253010-01
1 66624U 26072RB  26070.40844907  .00000000  00000+0  00000-0 0  9991
2 66624  60.0000 108.0000 0000000   0.0000 108.0000 14.06899812    19
CTC2_L_00253010-02
1 66625U 25066EJ  26070.40844907  .00000000  00000+0  00000-0 0  9994
2 66625  60.0000 108.0000 0000000   0.0000 198.0000 14.06899812    19
CTC2_L_00253010-03
1 66626U 24118UR  26070.40844907  .00000000  00000+0  00000-0 0  9992
2 66626  60.0000 108.0000 0000000   0.0000 288.0000 14.06899812    10
CTC2_L_00253010-04
1 66627U 24592DN  26070.40844907  .00000000  00000+0  00000-0 0  9999
2 66627  60.0000 108.0000 0000000   0.0000  18.0000 14.06899812    12
CTC2_L_00253011-01
1 66628U 23943SN  26070.40844907  .00000000  00000+0  00000-0 0  9999
2 66628  60.0000 120.0000 0000000   0.0000 120.0000 14.06899812    11
CTC2_L_00253011-02
1 66629U 24643W   26070.40844907  .00000000  00000+0  00000-0 0  9998
2 66629  60.0000 120.0000 0000000   0.0000 210.0000 14.06899812    12
CTC2_L_00253011-03
1 66630U 22588MZ  26070.40844907  .00000000  00000+0  00000-0 0  9996
2 66630  60.0000 120.0000 0000000   0.0000 300.0000 14.06899812    14
CTC2_L_00253011-04
1 66631U 25465MW  26070.40844907  .00000000  00000+0  00000-0 0  9994
2 66631  60.0000 120.0000 0000000   0.0000  30.0000 14.06899812    15
CTC2_L_00253012-01
1 66632U 22286OD  26070.40844907  .00000000  00000+0  00000-0 0  9993
2 66632  60.0000 132.0000 0000000   0.0000 132.0000 14.06899812    12
CTC2_L_00253012-02
1 66633U 23165BV  26070.40844907  .00000000  00000+0  00000-0 0  9991
2 66633  60.0000 132.0000 0000000   0.0000 222.0000 14.06899812    13
CTC2_L_00253012-03
1 66634U 23956PH  26070.40844907  .00000000  00000+0  00000-0 0  9990
2 66634  60.0000 132.0000 0000000   0.0000 312.0000 14.06899812    14
CTC2_L_00253012-04
1 66635U 24361EC  26070.40844907  .00000000  00000+0  00000-0 0  9992
2 66635  60.0000 132.0000 0000000   0.0000  42.0000 14.06899812    15
CTC2_L_00253013-01
1 66636U 26417SK  26070.40844907  .00000000  00000+0  00000-0 0  9997
2 66636  60.0000 144.0000 0000000   0.0000 144.0000 14.06899812    12
CTC2_L_00253013-02
1 66637U 25112UL  26070.40844907  .00000000  00000+0  00000-0 0  9999
2 66637  60.0000 144.0000 0000000   0.0000 234.0000 14.06899812    13
CTC2_L_00253013-03
1 66638U 23990SK  26070.40844907  .00000000  00000+0  00000-0 0  9992
2 66638  60.0000 144.0000 0000000   0.0000 324.0000 14.06899812    14
CTC2_L_00253013-04
1 66639U 23268PA  26070.40844907  .00000000  00000+0  00000-0 0  9991
2 66639  60.0000 144.0000 0000000   0.0000  54.0000 14.06899812    15
CTC2_L_00253014-01
1 66640U 26322XH  26070.40844907  .00000000  00000+0  00000-0 0  9997
2 66640  60.0000 156.0000 0000000   0.0000 156.0000 14.06899812    13
CTC2_L_00253014-02
1 66641U 26470DC  26070.40844907  .00000000  00000+0  00000-0 0  9992
2 66641  60.0000 156.0000 0000000   0.0000 246.0000 14.06899812    14
CTC2_L_00253014-03
1 66642U 25827XQ  26070.40844907  .00000000  00000+0  00000-0 0  9998
2 66642  60.0000 156.0000 0000000   0.0000 336.0000 14.06899812    15
CTC2_L_00253014-04
1 66643U 23831QD  26070.40844907  .00000000  00000+0  00000-0 0  9992
2 66643  60.0000 156.0000 0000000   0.0000  66.0000 14.06899812    16
CTC2_L_00253015-01
1 66644U 26699VJ  26070.40844907  .00000000  00000+0  00000-0 0  9998
2 66644  60.0000 168.0000 0000000   0.0000 168.0000 14.06899812    13
CTC2_L_00253015-02
1 66645U 24635YH  26070.40844907  .00000000  00000+0  00000-0 0  9997
2 66645  60.0000 168.0000 0000000   0.0000 258.0000 14.06899812    14
CTC2_L_00253015-03
1 66646U 22483RQ  26070.40844907  .00000000  00000+0  00000-0 0  9997
2 66646  60.0000 168.0000 0000000   0.0000 348.0000 14.06899812    15
CTC2_L_00253015-04
1 66647U 24582WO  26070.40844907  .00000000  00000+0  00000-0 0  9990
2 66647  60.0000 168.0000 0000000   0.0000  78.0000 14.06899812    16
CTC2_L_00253016-01
1 66648U 25101GL  26070.40844907  .00000000  00000+0  00000-0 0  9999
2 66648  60.0000 180.0000 0000000   0.0000 180.0000 14.06899812    15
CTC2_L_00253016-02
1 66649U 23315KA  26070.40844907  .00000000  00000+0  00000-0 0  9995
2 66649  60.0000 180.0000 0000000   0.0000 270.0000 14.06899812    16
